NORAD_CAT_ID,OBJECT_NAME,OBJECT_TYPE,EPOCH,MEAN_MOTION,ECCENTRICITY,INCLINATION,RA_OF_ASC_NODE,ARG_OF_PERICENTER,MEAN_ANOMALY,BSTAR,MEAN_MOTION_DOT,MEAN_MOTION_DDOT,TLE_LINE0,TLE_LINE1,TLE_LINE2,SEMIMAJOR_AXIS,PERIOD,APOGEE,PERIGEE,DECAYED
51113.0,STARLINK-3372,PAYLOAD,2022-02-13 22:00:00,15.73276317,0.0002642,53.2168,146.4544,31.0559,196.4417,-0.00069299,-0.000971,0.0,0 STARLINK-3372,1 51113U 22005K   22044.91667824 -.00097100  00000-0 -69299-3 0  9992,2 51113  53.2168 146.4544 0002642  31.0559 196.4417 15.73276317  5394,6727.678000000001,91.529,351.32,347.765,0.0
51113.0,STARLINK-3372,PAYLOAD,2022-02-14 12:00:02,15.73245472,0.0002596,53.2167,143.5683,27.442,265.7938,-0.00058281,-0.00081799,0.0,0 STARLINK-3372,1 51113U 22005K   22045.50002315 -.00081799  00000-0 -58281-3 0  9992,2 51113  53.2167 143.5683 0002596  27.4420 265.7938 15.73245472  5485,6727.766,91.531,351.37699999999984,347.884,0.0
51113.0,STARLINK-3372,PAYLOAD,2022-02-14 14:00:01,15.73202868,0.0002625,53.2168,143.1564,26.2559,19.1649,-5.3244e-05,-8.09e-05,0.0,0 STARLINK-3372,1 51113U 22005K   22045.58334491 -.00008090  00000-0 -53244-4 0  9991,2 51113  53.2168 143.1564 0002625  26.2559  19.1649 15.73202868  3720,6727.887,91.533,351.51800000000014,347.986,0.0
51113.0,STARLINK-3372,PAYLOAD,2022-02-14 20:00:01,15.73221359,0.0002641,53.2162,141.9191,22.2438,359.858,-0.00024146,-0.00034408,0.0,0 STARLINK-3372,1 51113U 22005K   22045.83334491 -.00034408  00000-0 -24146-3 0  9999,2 51113  53.2162 141.9191 0002641  22.2438 359.8580 15.73221359  5531,6727.834,91.532,351.476,347.922,0.0
51113.0,STARLINK-3372,PAYLOAD,2022-02-15 14:00:01,15.73210148,0.0002611,53.2169,138.2083,19.7063,292.4668,-0.00046958,-0.0006605,0.0,0 STARLINK-3372,1 51113U 22005K   22046.58334491 -.00066050  00000-0 -46958-3 0  9995,2 51113  53.2169 138.2083 0002611  19.7063 292.4668 15.73210148  3686,6727.866,91.533,351.48800000000006,347.975,0.0
51113.0,STARLINK-3372,PAYLOAD,2022-02-15 22:00:01,15.73175292,0.0002551,53.2169,136.5579,16.2315,24.9178,1.1923e-05,1.05e-05,0.0,0 STARLINK-3372,1 51113U 22005K   22046.91668981  .00001050  00000-0  11923-4 0  9998,2 51113  53.2169 136.5579 0002551  16.2315  24.9178 15.73175292  5701,6727.965999999999,91.535,351.547,348.11400000000015,0.0
51113.0,STARLINK-3372,PAYLOAD,2022-02-16 14:00:01,15.73204533,0.0002802,53.2167,133.2604,18.8424,200.0797,0.00034124,0.00047557,0.0,0 STARLINK-3372,1 51113U 22005K   22047.58334491  .00047557  00000-0  34124-3 0  9997,2 51113  53.2167 133.2604 0002802  18.8424 200.0797 15.73204533  5817,6727.882,91.533,351.63199999999995,347.862,0.0
51113.0,STARLINK-3372,PAYLOAD,2022-02-16 22:00:00,15.73287699,0.0002643,53.2161,131.6096,18.0197,289.8609,-0.00040573,-0.00057401,0.0,0 STARLINK-3372,1 51113U 22005K   22047.91667824 -.00057401  00000-0 -40573-3 0  9999,2 51113  53.2161 131.6096 0002643  18.0197 289.8609 15.73287699  3718,6727.645,91.528,351.288,347.732,0.0
51113.0,STARLINK-3372,PAYLOAD,2022-02-17 06:00:00,15.73258787,0.000257,53.2165,129.9592,20.5672,16.3177,-0.00051528,-0.00072513,0.0,0 STARLINK-3372,1 51113U 22005K   22048.25001157 -.00072513  00000-0 -51528-3 0  9991,2 51113  53.2165 129.9592 0002570  20.5672  16.3177 15.73258787  5911,6727.728,91.53,351.32199999999995,347.86400000000015,0.0
51113.0,STARLINK-3372,PAYLOAD,2022-02-17 14:00:01,15.73169089,0.0002912,53.2165,128.3118,20.749,105.1027,0.00045909,0.00064227,0.0,0 STARLINK-3372,1 51113U 22005K   22048.58334491  .00064227  00000-0  45909-3 0  9994,2 51113  53.2165 128.3118 0002912  20.7490 105.1027 15.73169089  3676,6727.983,91.535,351.807,347.889,0.0
51113.0,STARLINK-3372,PAYLOAD,2022-02-17 22:00:00,15.73243177,0.0002777,53.2164,126.6609,19.7617,194.9975,-0.00040491,-0.00057181,0.0,0 STARLINK-3372,1 51113U 22005K   22048.91667824 -.00057181  00000-0 -40491-3 0  9994,2 51113  53.2164 126.6609 0002777  19.7617 194.9975 15.73243177  6020,6727.772,91.531,351.505,347.769,0.0
51113.0,STARLINK-3372,PAYLOAD,2022-02-18 14:00:01,15.73113837,0.0002929,53.2159,123.3634,14.0578,18.5814,0.00041506,0.00057825,0.0,0 STARLINK-3372,1 51113U 22005K   22049.58334491  .00057825  00000-0  41506-3 0  9990,2 51113  53.2159 123.3634 0002929  14.0578  18.5814 15.73113837  3714,6728.141,91.538,351.977,348.035,0.0
51113.0,STARLINK-3372,PAYLOAD,2022-02-18 20:00:01,15.72804589,0.0002827,53.2165,122.1097,17.7327,351.6821,0.0037273,0.005488,0.0,0 STARLINK-3372,1 51113U 22005K   22049.83334491  .00548800  00000-0  37273-2 0  9991,2 51113  53.2165 122.1097 0002827  17.7327 351.6821 15.72804589  3674,6729.023,91.556,352.79,348.985,0.0
51113.0,STARLINK-3372,PAYLOAD,2022-02-19 06:00:00,15.73199807,0.0002717,53.2156,120.0622,18.0655,192.4775,0.00023266,0.0003216,0.0,0 STARLINK-3372,1 51113U 22005K   22050.25001157  .00032160  00000-0  23266-3 0  9994,2 51113  53.2156 120.0622 0002717  18.0655 192.4775 15.73199807  6236,6727.896,91.533,351.589,347.93300000000005,0.0
51113.0,STARLINK-3372,PAYLOAD,2022-02-19 14:00:01,15.73210332,0.0003033,53.2157,118.4146,15.1627,284.3233,0.00032118,0.00044722,0.0,0 STARLINK-3372,1 51113U 22005K   22050.58334491  .00044722  00000-0  32118-3 0  9993,2 51113  53.2157 118.4146 0003033  15.1627 284.3233 15.73210332  3692,6727.866,91.533,351.771,347.69,0.0
51113.0,STARLINK-3372,PAYLOAD,2022-02-19 20:00:01,15.73273544,0.0002934,53.2154,117.1761,13.9149,262.2879,-0.00071896,-0.00100668,0.0,0 STARLINK-3372,1 51113U 22005K   22050.83334491 -.00100668  00000-0 -71896-3 0  9991,2 51113  53.2154 117.1761 0002934  13.9149 262.2879 15.73273544  3709,6727.686,91.529,351.524,347.577,0.0
51113.0,STARLINK-3372,PAYLOAD,2022-02-20 06:00:00,15.73259776,0.0002921,53.2156,115.1134,17.146,100.2519,-0.00060623,-0.00085087,0.0,0 STARLINK-3372,1 51113U 22005K   22051.25001157 -.00085087  00000-0 -60623-3 0  9991,2 51113  53.2156 115.1134 0002921  17.1460 100.2519 15.73259776  6381,6727.725,91.53,351.555,347.625,0.0
51113.0,STARLINK-3372,PAYLOAD,2022-02-20 14:00:01,15.73193432,0.0003186,53.215,113.4656,17.3303,189.031,-5.9803e-05,-9.007e-05,0.0,0 STARLINK-3372,1 51113U 22005K   22051.58334491 -.00009007  00000-0 -59803-4 0  9994,2 51113  53.2150 113.4656 0003186  17.3303 189.0310 15.73193432  3665,6727.9140000000025,91.534,351.922,347.635,0.0
51113.0,STARLINK-3372,PAYLOAD,2022-02-20 22:00:00,15.73159322,0.0002946,53.2147,111.8142,16.0315,279.2543,0.00016915,0.00023145,0.0,0 STARLINK-3372,1 51113U 22005K   22051.91667824  .00023145  00000-0  16915-3 0  9993,2 51113  53.2147 111.8142 0002946  16.0315 279.2543 15.73159322  6499,6728.011,91.536,351.858,347.894,0.0
51113.0,STARLINK-3372,PAYLOAD,2022-02-21 14:00:01,15.73159728,0.0003161,53.2152,108.517,12.984000000000002,100.0892,7.572e-05,0.00010001,0.0,0 STARLINK-3372,1 51113U 22005K   22052.58334491  .00010001  00000-0  75720-4 0  9995,2 51113  53.2152 108.5170 0003161  12.9840 100.0892 15.73159728  6596,6728.01,91.536,352.00199999999984,347.74800000000016,0.0
51113.0,STARLINK-3372,PAYLOAD,2022-02-21 22:00:00,15.73156006,0.0003024,53.2153,106.8655,12.997,188.9676,0.00031964,0.00044398,0.0,0 STARLINK-3372,1 51113U 22005K   22052.91667824  .00044398  00000-0  31964-3 0  9998,2 51113  53.2153 106.8655 0003024  12.9970 188.9676 15.73156006  3697,6728.021,91.536,351.92,347.851,0.0
51113.0,STARLINK-3372,PAYLOAD,2022-02-22 04:00:00,15.73189138,0.0002984,53.2154,105.628,16.2852,162.3424,0.00032218,0.00044822,0.0,0 STARLINK-3372,1 51113U 22005K   22053.16667824  .00044822  00000-0  32218-3 0  9991,2 51113  53.2154 105.6280 0002984  16.2852 162.3424 15.73189138  6680,6727.926,91.534,351.7990000000001,347.784,0.0
51113.0,STARLINK-3372,PAYLOAD,2022-02-22 14:00:01,15.7319864,0.0003335,53.2149,103.5683,15.123,4.6751,0.00052387,0.00073558,0.0,0 STARLINK-3372,1 51113U 22005K   22053.58334491  .00073558  00000-0  52387-3 0  9995,2 51113  53.2149 103.5683 0003335  15.1230   4.6751 15.73198640  3683,6727.899,91.533,352.0080000000001,347.52,0.0
51113.0,STARLINK-3372,PAYLOAD,2022-02-22 22:00:00,15.73231463,0.000301,53.2148,101.9167,13.3859,95.3898,-0.00016865,-0.00024261,0.0,0 STARLINK-3372,1 51113U 22005K   22053.91667824 -.00024261  00000-0 -16865-3 0  9991,2 51113  53.2148 101.9167 0003010  13.3859  95.3898 15.73231463  6805,6727.805,91.531,351.696,347.645,0.0
51113.0,STARLINK-3372,PAYLOAD,2022-02-23 14:00:01,15.7323209,0.0003242,53.2154,98.6195,8.2849,278.4095,-0.00057821,-0.00081131,0.0,0 STARLINK-3372,1 51113U 22005K   22054.58334491 -.00081131  00000-0 -57821-3 0  9992,2 51113  53.2154  98.6195 0003242   8.2849 278.4095 15.73232090  6916,6727.804,91.531,351.85,347.48800000000006,0.0
51113.0,STARLINK-3372,PAYLOAD,2022-02-23 22:00:00,15.73127203,0.0003045,53.2156,96.9678,6.1579,9.4785,0.00047753,0.00066733,0.0,0 STARLINK-3372,1 51113U 22005K   22054.91667824  .00066733  00000-0  47753-3 0  9990,2 51113  53.2156  96.9678 0003045   6.1579   9.4785 15.73127203  3715,6728.103,91.537,352.016,347.9190000000001,0.0
51113.0,STARLINK-3372,PAYLOAD,2022-02-24 06:00:00,15.7267362,0.0003038,53.2171,95.302,15.879,88.7557,0.0055679,0.00845428,0.0,0 STARLINK-3372,1 51113U 22005K   22055.25001157  .00845428  00000-0  55679-2 0  9990,2 51113  53.2171  95.3020 0003038  15.8790  88.7557 15.72673620  7012,6729.396,91.564,353.306,349.217,0.0
51113.0,STARLINK-3372,PAYLOAD,2022-02-24 14:00:01,15.73190705,0.0003448,53.2151,93.6708,16.7386,176.794,0.00040568,0.00056689,0.0,0 STARLINK-3372,1 51113U 22005K   22055.58334491  .00056689  00000-0  40568-3 0  9991,2 51113  53.2151  93.6708 0003448  16.7386 176.7940 15.73190705  3682,6727.922,91.534,352.106,347.467,0.0
51113.0,STARLINK-3372,PAYLOAD,2022-02-24 22:00:00,15.73188082,0.000316,53.2152,92.0193,16.5236,265.9661,1.0872e-05,9.02e-06,0.0,0 STARLINK-3372,1 51113U 22005K   22055.91667824  .00000902  00000-0  10872-4 0  9990,2 51113  53.2152  92.0193 0003160  16.5236 265.9661 15.73188082  3683,6727.929,91.534,351.92,347.668,0.0
